COSMOS 2433 (720)       
1 32275C 07052A   21299.99979167  .00000000  00000-0  00000-0 0  2996
2 32275  66.0754  12.4215 0004586 230.7244 212.0932  2.13104352    10
COSMOS 2432 (719)       
1 32276C 07052B   21299.99979167  .00000000  00000-0  00000-0 0  2997
2 32276  66.0885  12.5185 0009106 316.3823  75.3616  2.13103593    15
COSMOS 2434 (721)       
1 32393C 07065A   21299.99979167 -.00000000  00000-0  00000-0 0  2992
2 32393  64.4320 249.4046 0001237  78.0607 253.5222  2.13103154    13
COSMOS 2436 (723)       
1 32395C 07065C   21299.99979167 -.00000000  00000-0  00000-0 0  2994
2 32395  64.4408 249.4594 0015290 354.2413 113.3717  2.13102879    13
COSMOS 2456 (730)       
1 36111C 09070A   21299.99979167  .00000000  00000-0  00000-0 0  2991
2 36111  64.2991 129.0705 0001890 356.4518 143.9616  2.13099447    19
COSMOS 2457 (733)       
1 36112C 09070B   21299.99979167  .00000000  00000-0  00000-0 0  2992
2 36112  64.2821 128.9521 0006876 147.2905 118.5563  2.13101764    16
COSMOS 2459 (731)       
1 36400C 10007A   21299.99979167  .00000000  00000-0  00000-0 0  2994
2 36400  65.9652  11.2922 0018040   3.8153 296.7138  2.13103804    17
COSMOS 2460 (732)       
1 36402C 10007C   21299.99979167  .00000000  00000-0  00000-0 0  2996
2 36402  65.9522  11.2468 0002006 210.4516  36.2274  2.13106594    11
COSMOS 2464 (736)       
1 37139C 10041C   21299.99979167 -.00000000  00000-0  00000-0 0  2993
2 37139  64.0312 248.5962 0028240   7.2356 184.2904  2.13100742    15
COSMOS 2476 (744)       
1 37867C 11064A   21299.99979167  .00000000  00000-0  00000-0 0  2996
2 37867  64.5918 130.3355 0019349 230.6319 173.2361  2.13102008    17
COSMOS 2477 (745)       
1 37868C 11064B   21299.99979167  .00000000  00000-0  00000-0 0  2997
2 37868  64.5997 130.3976 0016718 230.6169 351.5180  2.13101992    15
COSMOS 2475 (743)       
1 37869C 11064C   21299.99979167  .00000000  00000-0  00000-0 0  2998
2 37869  64.6070 130.4036 0020076 253.1458 286.8267  2.13102203    12
COSMOS 2485 (747)       
1 39155C 13019A   21299.99979167  .00000000  00000-0  00000-0 0  2990
2 39155  64.7571 130.7130 0019979 226.3091 222.0300  2.13102108    16
COSMOS 2492 (754)       
1 39620C 14012A   21299.99979167  .00000000  00000-0  00000-0 0  2991
2 39620  65.8398  10.9607 0012342 314.4702 168.5239  2.13103317    13
COSMOS 2500 (755)       
1 40001C 14032A   21299.99979167  .00000000  00000-0  00000-0 0  2998
2 40001  65.7799  10.8393 0008370 205.7919 136.4927  2.13102616    10
COSMOS 2501 (702)       
1 40315C 14075A   21299.99979167 -.00000000  00000-0  00000-0 0  2994
2 40315  63.7415 249.3538 0017869 212.7197 296.4858  2.13101247    19
COSMOS 2514 (751)       
1 41330C 16008A   21299.99979167  .00000000  00000-0  00000-0 0  2999
2 41330  65.5811  10.5890 0012135 212.9662 312.7079  2.13102903    13
COSMOS 2516 (753)       
1 41554C 16032A   21299.99979167 -.00000000  00000-0  00000-0 0  2995
2 41554  64.7083 249.3627 0007862 251.1243 170.4845  2.13102866    12
COSMOS 2522 (752)       
1 42939C 17055A   21299.99979167 -.00000000  00000-0  00000-0 0  2999
2 42939  64.2005 249.8908 0008734 250.2898  34.0731  2.13102165    12
COSMOS 2527 (756)       
1 43508C 18053A   21299.99979167  .00000000  00000-0  00000-0 0  2990
2 43508  64.9207 130.6644 0006855 211.5044 104.9852  2.13102768    15
COSMOS 2529 (757)       
1 43687C 18086A   21299.99979167 -.00000000  00000-0  00000-0 0  2995
2 43687  64.4151 250.1441 0011081 270.4894 329.4268  2.13102184    10
COSMOS 2534 (758)       
1 44299C 19030A   21299.99979167 -.00000000  00000-0  00000-0 0  2995
2 44299  64.4864 250.0071 0013883 287.6757  86.9872  2.13101968    14
COSMOS 2544 (759)       
1 44850C 19088A   21299.99979167  .00000000  00000-0  00000-0 0  2990
2 44850  64.9056 130.5216 0009778 253.8570 106.2741  2.13102461    14
COSMOS 2545 (760)       
1 45358C 20018A   21299.99979167  .00000000  00000-0  00000-0 0  2999
2 45358  64.9160  11.3888 0010758 241.9219 328.0437  2.13102800    16
